CCSDS_OMM_VERS = 2.0
CREATION_DATE  = 
ORIGINATOR     = 

OBJECT_NAME    = STARLINK-36034
OBJECT_ID      = 2025-270X
CENTER_NAME    = EARTH
REF_FRAME      = TEME
TIME_SYSTEM    = UTC
MEAN_ELEMENT_THEORY = SGP/SGP4

EPOCH          = 2025-12-10T20:00:01.000224
MEAN_MOTION    = 15.50616148
ECCENTRICITY   = .0001955
INCLINATION    = 42.9996
RA_OF_ASC_NODE = 203.7877
ARG_OF_PERICENTER = 251.0682
MEAN_ANOMALY   = 322.0831

EPHEMERIS_TYPE = 0
CLASSIFICATION_TYPE = U
NORAD_CAT_ID   = 66609
ELEMENT_SET_NO = 999
REV_AT_EPOCH   = 393
BSTAR          = -.18908E-2
MEAN_MOTION_DOT = -.109877E-2
MEAN_MOTION_DDOT = 0

CCSDS_OMM_VERS = 2.0
CREATION_DATE  = 
ORIGINATOR     = 

OBJECT_NAME    = STARLINK-35680
OBJECT_ID      = 2025-270Y
CENTER_NAME    = EARTH
REF_FRAME      = TEME
TIME_SYSTEM    = UTC
MEAN_ELEMENT_THEORY = SGP/SGP4

EPOCH          = 2025-12-10T20:00:01.000224
MEAN_MOTION    = 15.50621880
ECCENTRICITY   = .0001931
INCLINATION    = 42.9997
RA_OF_ASC_NODE = 203.7824
ARG_OF_PERICENTER = 255.3836
MEAN_ANOMALY   = 319.6855

EPHEMERIS_TYPE = 0
CLASSIFICATION_TYPE = U
NORAD_CAT_ID   = 66610
ELEMENT_SET_NO = 999
REV_AT_EPOCH   = 420
BSTAR          = -.20788E-2
MEAN_MOTION_DOT = -.120625E-2
MEAN_MOTION_DDOT = 0

CCSDS_OMM_VERS = 2.0
CREATION_DATE  = 
ORIGINATOR     = 

OBJECT_NAME    = STARLINK-35583
OBJECT_ID      = 2025-270Z
CENTER_NAME    = EARTH
REF_FRAME      = TEME
TIME_SYSTEM    = UTC
MEAN_ELEMENT_THEORY = SGP/SGP4

EPOCH          = 2025-12-10T20:00:01.000224
MEAN_MOTION    = 15.50618237
ECCENTRICITY   = .0001933
INCLINATION    = 42.9998
RA_OF_ASC_NODE = 203.7775
ARG_OF_PERICENTER = 253.2763
MEAN_ANOMALY   = 323.7102

EPHEMERIS_TYPE = 0
CLASSIFICATION_TYPE = U
NORAD_CAT_ID   = 66611
ELEMENT_SET_NO = 999
REV_AT_EPOCH   = 420
BSTAR          = -.19659E-2
MEAN_MOTION_DOT = -.11417E-2
MEAN_MOTION_DDOT = 0

CCSDS_OMM_VERS = 2.0
CREATION_DATE  = 
ORIGINATOR     = 

OBJECT_NAME    = STARLINK-36039
OBJECT_ID      = 2025-270AA
CENTER_NAME    = EARTH
REF_FRAME      = TEME
TIME_SYSTEM    = UTC
MEAN_ELEMENT_THEORY = SGP/SGP4

EPOCH          = 2025-12-10T20:00:01.000224
MEAN_MOTION    = 15.50598738
ECCENTRICITY   = .0001991
INCLINATION    = 42.9998
RA_OF_ASC_NODE = 203.7728
ARG_OF_PERICENTER = 251.4685
MEAN_ANOMALY   = 327.4351

EPHEMERIS_TYPE = 0
CLASSIFICATION_TYPE = U
NORAD_CAT_ID   = 66612
ELEMENT_SET_NO = 999
REV_AT_EPOCH   = 409
BSTAR          = -.13508E-2
MEAN_MOTION_DOT = -.78853E-3
MEAN_MOTION_DDOT = 0

CCSDS_OMM_VERS = 2.0
CREATION_DATE  = 
ORIGINATOR     = 

OBJECT_NAME    = STARLINK-36037
OBJECT_ID      = 2025-270AB
CENTER_NAME    = EARTH
REF_FRAME      = TEME
TIME_SYSTEM    = UTC
MEAN_ELEMENT_THEORY = SGP/SGP4

EPOCH          = 2025-12-10T20:00:01.000224
MEAN_MOTION    = 15.50607248
ECCENTRICITY   = .0001967
INCLINATION    = 42.9998
RA_OF_ASC_NODE = 203.7673
ARG_OF_PERICENTER = 253.3854
MEAN_ANOMALY   = 327.4407

EPHEMERIS_TYPE = 0
CLASSIFICATION_TYPE = U
NORAD_CAT_ID   = 66613
ELEMENT_SET_NO = 999
REV_AT_EPOCH   = 409
BSTAR          = -.17136E-2
MEAN_MOTION_DOT = -.99709E-3
MEAN_MOTION_DDOT = 0

CCSDS_OMM_VERS = 2.0
CREATION_DATE  = 
ORIGINATOR     = 

OBJECT_NAME    = STARLINK-36040
OBJECT_ID      = 2025-270AC
CENTER_NAME    = EARTH
REF_FRAME      = TEME
TIME_SYSTEM    = UTC
MEAN_ELEMENT_THEORY = SGP/SGP4

EPOCH          = 2025-12-10T20:00:01.000224
MEAN_MOTION    = 15.50612290
ECCENTRICITY   = .0001821
INCLINATION    = 42.9998
RA_OF_ASC_NODE = 203.7578
ARG_OF_PERICENTER = 254.2294
MEAN_ANOMALY   = 330.4260

EPHEMERIS_TYPE = 0
CLASSIFICATION_TYPE = U
NORAD_CAT_ID   = 66614
ELEMENT_SET_NO = 999
REV_AT_EPOCH   = 393
BSTAR          = -.17914E-2
MEAN_MOTION_DOT = -.104175E-2
MEAN_MOTION_DDOT = 0

CCSDS_OMM_VERS = 2.0
CREATION_DATE  = 
ORIGINATOR     = 

OBJECT_NAME    = STARLINK-35988
OBJECT_ID      = 2025-270AD
CENTER_NAME    = EARTH
REF_FRAME      = TEME
TIME_SYSTEM    = UTC
MEAN_ELEMENT_THEORY = SGP/SGP4

EPOCH          = 2025-12-10T20:00:01.000224
MEAN_MOTION    = 15.50490935
ECCENTRICITY   = .0001708
INCLINATION    = 42.9996
RA_OF_ASC_NODE = 203.7627
ARG_OF_PERICENTER = 237.1874
MEAN_ANOMALY   = 345.5542

EPHEMERIS_TYPE = 0
CLASSIFICATION_TYPE = U
NORAD_CAT_ID   = 66615
ELEMENT_SET_NO = 999
REV_AT_EPOCH   = 393
BSTAR          = .12923E-2
MEAN_MOTION_DOT = .75971E-3
MEAN_MOTION_DDOT = 0

CCSDS_OMM_VERS = 2.0
CREATION_DATE  = 
ORIGINATOR     = 

OBJECT_NAME    = STARLINK-35391
OBJECT_ID      = 2025-270AE
CENTER_NAME    = EARTH
REF_FRAME      = TEME
TIME_SYSTEM    = UTC
MEAN_ELEMENT_THEORY = SGP/SGP4

EPOCH          = 2025-12-10T20:00:01.000224
MEAN_MOTION    = 15.50612340
ECCENTRICITY   = .0001854
INCLINATION    = 42.9997
RA_OF_ASC_NODE = 203.7533
ARG_OF_PERICENTER = 252.0447
MEAN_ANOMALY   = 334.5237

EPHEMERIS_TYPE = 0
CLASSIFICATION_TYPE = U
NORAD_CAT_ID   = 66616
ELEMENT_SET_NO = 999
REV_AT_EPOCH   = 420
BSTAR          = -.17353E-2
MEAN_MOTION_DOT = -.100967E-2
MEAN_MOTION_DDOT = 0

CCSDS_OMM_VERS = 2.0
CREATION_DATE  = 
ORIGINATOR     = 

OBJECT_NAME    = STARLINK-35940
OBJECT_ID      = 2025-271A
CENTER_NAME    = EARTH
REF_FRAME      = TEME
TIME_SYSTEM    = UTC
MEAN_ELEMENT_THEORY = SGP/SGP4

EPOCH          = 2025-12-10T20:00:01.000224
MEAN_MOTION    = 15.58260383
ECCENTRICITY   = .0001202
INCLINATION    = 53.1601
RA_OF_ASC_NODE = 196.4125
ARG_OF_PERICENTER = 108.8702
MEAN_ANOMALY   = 108.3474

EPHEMERIS_TYPE = 0
CLASSIFICATION_TYPE = U
NORAD_CAT_ID   = 66617
ELEMENT_SET_NO = 999
REV_AT_EPOCH   = 393
BSTAR          = -.30002E-1
MEAN_MOTION_DOT = -.206353E-1
MEAN_MOTION_DDOT = 0

CCSDS_OMM_VERS = 2.0
CREATION_DATE  = 
ORIGINATOR     = 

OBJECT_NAME    = STARLINK-35970
OBJECT_ID      = 2025-271B
CENTER_NAME    = EARTH
REF_FRAME      = TEME
TIME_SYSTEM    = UTC
MEAN_ELEMENT_THEORY = SGP/SGP4

EPOCH          = 2025-12-10T20:00:01.000224
MEAN_MOTION    = 15.58263400
ECCENTRICITY   = .0001041
INCLINATION    = 53.1599
RA_OF_ASC_NODE = 196.2998
ARG_OF_PERICENTER = 109.0197
MEAN_ANOMALY   = 161.5226

EPHEMERIS_TYPE = 0
CLASSIFICATION_TYPE = U
NORAD_CAT_ID   = 66618
ELEMENT_SET_NO = 999
REV_AT_EPOCH   = 393
BSTAR          = -.30092E-1
MEAN_MOTION_DOT = -.2069154E-1
MEAN_MOTION_DDOT = 0

CCSDS_OMM_VERS = 2.0
CREATION_DATE  = 
ORIGINATOR     = 

OBJECT_NAME    = STARLINK-35951
OBJECT_ID      = 2025-271C
CENTER_NAME    = EARTH
REF_FRAME      = TEME
TIME_SYSTEM    = UTC
MEAN_ELEMENT_THEORY = SGP/SGP4

EPOCH          = 2025-12-10T20:00:01.000224
MEAN_MOTION    = 15.58260592
ECCENTRICITY   = .0001196
INCLINATION    = 53.1603
RA_OF_ASC_NODE = 196.3955
ARG_OF_PERICENTER = 105.5965
MEAN_ANOMALY   = 119.2894

EPHEMERIS_TYPE = 0
CLASSIFICATION_TYPE = U
NORAD_CAT_ID   = 66619
ELEMENT_SET_NO = 999
REV_AT_EPOCH   = 393
BSTAR          = -.29994E-1
MEAN_MOTION_DOT = -.2063045E-1
MEAN_MOTION_DDOT = 0

CCSDS_OMM_VERS = 2.0
CREATION_DATE  = 
ORIGINATOR     = 

OBJECT_NAME    = STARLINK-35936
OBJECT_ID      = 2025-271D
CENTER_NAME    = EARTH
REF_FRAME      = TEME
TIME_SYSTEM    = UTC
MEAN_ELEMENT_THEORY = SGP/SGP4

EPOCH          = 2025-12-10T20:00:01.000224
MEAN_MOTION    = 15.58259538
ECCENTRICITY   = .0001147
INCLINATION    = 53.1603
RA_OF_ASC_NODE = 196.4086
ARG_OF_PERICENTER = 98.8568
MEAN_ANOMALY   = 120.2807

EPHEMERIS_TYPE = 0
CLASSIFICATION_TYPE = U
NORAD_CAT_ID   = 66620
ELEMENT_SET_NO = 999
REV_AT_EPOCH   = 393
BSTAR          = -.30013E-1
MEAN_MOTION_DOT = -.2064156E-1
MEAN_MOTION_DDOT = 0

