STARLINK-36034          
1 66609U 25270X   25344.83334491 -.00109877  00000+0 -18908-2 0  9997
2 66609  42.9996 203.7877 0001955 251.0682 322.0831 15.50616148  3937
STARLINK-35680          
1 66610U 25270Y   25344.83334491 -.00120625  00000+0 -20788-2 0  9992
2 66610  42.9997 203.7824 0001931 255.3836 319.6855 15.50621880  4202
STARLINK-35583          
1 66611U 25270Z   25344.83334491 -.00114170  00000+0 -19659-2 0  9996
2 66611  42.9998 203.7775 0001933 253.2763 323.7102 15.50618237  4200
STARLINK-36039          
1 66612U 25270AA  25344.83334491 -.00078853  00000+0 -13508-2 0  9991
2 66612  42.9998 203.7728 0001991 251.4685 327.4351 15.50598738  4093
STARLINK-36037          
1 66613U 25270AB  25344.83334491 -.00099709  00000+0 -17136-2 0  9996
2 66613  42.9998 203.7673 0001967 253.3854 327.4407 15.50607248  4094
STARLINK-36040          
1 66614U 25270AC  25344.83334491 -.00104175  00000+0 -17914-2 0  9995
2 66614  42.9998 203.7578 0001821 254.2294 330.4260 15.50612290  3932
STARLINK-35988          
1 66615U 25270AD  25344.83334491  .00075971  00000+0  12923-2 0  9990
2 66615  42.9996 203.7627 0001708 237.1874 345.5542 15.50490935  3934
STARLINK-35391          
1 66616U 25270AE  25344.83334491 -.00100967  00000+0 -17353-2 0  9999
2 66616  42.9997 203.7533 0001854 252.0447 334.5237 15.50612340  4202
STARLINK-35940          
1 66617U 25271A   25344.83334491 -.02063530  00000+0 -30002-1 0  9992
2 66617  53.1601 196.4125 0001202 108.8702 108.3474 15.58260383  3936
STARLINK-35970          
1 66618U 25271B   25344.83334491 -.02069154  00000+0 -30092-1 0  9990
2 66618  53.1599 196.2998 0001041 109.0197 161.5226 15.58263400  3930
STARLINK-35951          
1 66619U 25271C   25344.83334491 -.02063045  00000+0 -29994-1 0  9993
2 66619  53.1603 196.3955 0001196 105.5965 119.2894 15.58260592  3936
STARLINK-35936          
1 66620U 25271D   25344.83334491 -.02064156  00000+0 -30013-1 0  9993
2 66620  53.1603 196.4086 0001147  98.8568 120.2807 15.58259538  3937
